{
    "links": {
        "self": "http://www.neowsapp.com/rest/v1/neo/3842594?api_key=iIulBulltgU6a56xZRHN4H3l9WmuAYTsLGpBGhQ2"
    },
    "id": "3842594",
    "neo_reference_id": "3842594",
    "name": "(2019 KK2)",
    "designation": "2019 KK2",
    "nasa_jpl_url": "http://ssd.jpl.nasa.gov/sbdb.cgi?sstr=3842594",
    "absolute_magnitude_h": 21.1,
    "estimated_diameter": {
        "kilometers": {
            "estimated_diameter_min": 0.160160338,
            "estimated_diameter_max": 0.358129403
        },
        "meters": {
            "estimated_diameter_min": 160.1603379786,
            "estimated_diameter_max": 358.1294030194
        },
        "miles": {
            "estimated_diameter_min": 0.0995189894,
            "estimated_diameter_max": 0.2225312253
        },
        "feet": {
            "estimated_diameter_min": 525.4604432536,
            "estimated_diameter_max": 1174.9652706022
        }
    },
    "is_potentially_hazardous_asteroid": false,
    "close_approach_data": [
        {
            "close_approach_date": "2019-05-20",
            "close_approach_date_full": "2019-May-20 21:52",
            "epoch_date_close_approach": 1558389120000,
            "relative_velocity": {
                "kilometers_per_second": "14.5699602876",
                "kilometers_per_hour": "52451.8570354961",
                "miles_per_hour": "32591.544167417"
            },
            "miss_distance": {
                "astronomical": "0.3523899576",
                "lunar": "137.0796935064",
                "kilometers": "52716787.066350312",
                "miles": "32756692.5350138256"
            },
            "orbiting_body": "Earth"
        }
    ],
    "orbital_data": {
        "orbit_id": "6",
        "orbit_determination_date": "2019-12-16 06:17:49",
        "first_observation_date": "2019-05-28",
        "last_observation_date": "2019-06-25",
        "data_arc_in_days": 28,
        "observations_used": 48,
        "orbit_uncertainty": "7",
        "minimum_orbit_intersection": ".191713",
        "jupiter_tisserand_invariant": "3.269",
        "epoch_osculation": "2459000.5",
        "eccentricity": ".4934208641938737",
        "semi_major_axis": "2.354870289243067",
        "inclination": "25.17923831826441",
        "ascending_node_longitude": "229.3862200224022",
        "orbital_period": "1319.923959723895",
        "perihelion_distance": "1.192928156060276",
        "perihelion_argument": "14.5521970558679",
        "aphelion_distance": "3.516812422425859",
        "perihelion_time": "2458646.079400933369",
        "mean_anomaly": "96.66573193404037",
        "mean_motion": ".2727429844332136",
        "equinox": "J2000",
        "orbit_class": {
            "orbit_class_type": "AMO",
            "orbit_class_description": "Near-Earth asteroid orbits similar to that of 1221 Amor",
            "orbit_class_range": "1.017 AU < q (perihelion) < 1.3 AU"
        }
    },
    "is_sentry_object": false
}